0 EUTE 113 WEST A(SATMEX 6
1 29162U 06020A   19009.01307916 -.00000033 +00000-0 +00000-0 0  9991
2 29162 000.0208 119.2345 0003041 173.0236 067.6960 01.00271331046245
0 EUTE 113 WEST A(SATMEX 6
1 29162U 06020A   19009.01307925 -.00000033 +00000-0 +00000-0 0  9991
2 29162 000.0207 119.4144 0003039 172.8270 067.7127 01.00271328046247
0 THAICOM 5
1 29163U 06020B   19009.52779545 -.00000117 +00000-0 +00000-0 0  9992
2 29163 000.0211 110.6569 0006189 182.0360 084.5835 01.00272455046266
0 THAICOM 5
1 29163U 06020B   19009.88659597 -.00000117 +00000-0 +00000-0 0  9995
2 29163 000.0221 111.4998 0006214 181.4056 213.8937 01.00272425046274
0 THAICOM 5
1 29163U 06020B   19010.10198178 -.00000116  00000-0  00000+0 0  9993
2 29163   0.0224 111.6123 0006227 181.3996 291.5387  1.00272388 46309
0 ARIANE 5 R/B
1 29165U 06020D   19009.99760071  .00003372  00000-0  29297-3 0  9996
2 29165   6.9416 130.4813 6434879 260.7840  26.3044  3.44382009126246
0 ARIANE 5 R/B
1 29165U 06020D   19009.41720344 +.00003552 +00000-0 +30685-3 0  9995
2 29165 006.9418 130.8825 6434893 259.9929 026.7462 03.44378127126243
0 SCOUT B DEB
1 29168U 65063S   19009.35275321 +.00004339 +00000-0 +15101-1 0  9991
2 29168 069.2217 135.8966 0797457 013.9881 015.0074 12.20762486294293
0 SCOUT B DEB
1 29168U 65063S   19010.42320275  .00004801  00000-0  16685-1 0  9992
2 29168  69.2203 134.1377 0797560  12.9481  39.4978 12.20773364566603
0 TRANSIT 15 DEB
1 29180U 67034J   19010.87721472  .00004574  00000-0  27136-2 0  9990
2 29180  90.2154 325.7772 0048390 109.9880 305.5068 14.06846113635325
0 DELTA 1 DEB
1 29186U 68002K   19010.40407588 -.00000095  00000-0 -48381-4 0  9993
2 29186 105.7974  85.8423 0310051 313.9109 107.4888 12.91860077667766
0 COSMOS 860 COOLANT
1 29194U 76103G   19009.32478333 +.00000111 +00000-0 +14746-3 0  9992
2 29194 064.6886 337.3749 0053297 202.0217 231.2433 13.96174426791919
0 ATLAS F DEB
1 29197U 78047C   19009.28091618 +.00013165 +00000-0 +18008-1 0  9992
2 29197 063.8538 259.9806 2807983 123.0551 345.0642 09.07907078491720
0 ATLAS F DEB
1 29197U 78047C   19010.82716017  .00012084  00000-0  16356-1 0  9994
2 29197  63.8559 258.1374 2809447 122.9634 359.0366  9.07944871497198
0 ATLAS F DEB
1 29197U 78047C   19009.93990465 +.00012608 +00000-0 +17167-1 0  9998
2 29197 063.8546 259.1953 2808617 123.0162 338.9737 09.07923421491789
0 METEOR 2-5 DEB
1 29198U 79095P   19009.17303296 +.00000700 +00000-0 +23567-3 0  9992
2 29198 081.2042 178.1761 0014265 154.0529 206.1375 14.36154746277611
0 SCOUT G-1 DEB
1 29212U 88033H   19009.54088258 +.00000373 +00000-0 +51867-3 0  9990
2 29212 090.3465 282.9620 0144186 123.9191 358.3627 13.52044266710627
0 CZ-4 DEB
1 29213U 99057NL  18344.69275872  .05458687  31929-5  23781-2 0  9998
2 29213  98.6376  67.2578 0009501 315.7943  44.2583 16.22447931770199
0 CZ-4B DEB
1 29216U 02024G   19010.85192686  .00000149  00000-0  18481-3 0  9993
2 29216  98.8273 340.9081 0230385  47.6069 343.7912 13.67338310821103
0 CZ-2D DEB
1 29217U 05024H   19009.01079512 +.00001016 +00000-0 +81987-4 0  9991
2 29217 097.6011 096.6959 0109120 098.3486 263.0126 14.97511149720373
0 CZ-2D DEB
1 29217U 05024H   19010.21354070  .00001017  00000-0  82130-4 0  9992
2 29217  97.6007  97.8660 0109023  94.3547 267.0141 14.97512875721229
0 RESURS DK-1
1 29228U 06021A   19010.19629957  .00000055  00000-0  11523-4 0  9997
2 29228  69.9360  82.4711 0005936 218.0541 142.0201 15.02395172694009
0 RESURS DK-1
1 29228U 06021A   19009.59708622 +.00000071 +00000-0 +12714-4 0  9997
2 29228 069.9361 083.9961 0005977 218.5313 141.5421 15.02395062693915
0 RESURS DK-1
1 29228U 06021A   19010.59577512  .00000051  00000-0  11238-4 0  9999
2 29228  69.9360  81.4544 0005907 217.6960 142.3787 15.02395236694069
0 RESURS DK-1
1 29228U 06021A   19010.46261659  .00000054  00000-0  11474-4 0  9992
2 29228  69.9360  81.7933 0005919 217.8357 142.2388 15.02395221694047
0 KAZSAT 1
1 29230U 06022A   19010.77180524 -.00000023  00000-0  00000+0 0  9996
2 29230   7.2026  53.0661 0003965 213.4635 318.7375  0.99234959 45680
0 KAZSAT 1
1 29230U 06022A   19009.48453994 +.00000003 +00000-0 +00000-0 0  9994
2 29230 007.2004 053.0729 0004009 212.8635 219.4548 00.99234390045693
0 SL-12 R/B(2)
1 29233U 06022D   19009.86853810 +.00000012 +00000-0 +00000-0 0  9990
2 29233 009.2570 040.6277 0052332 330.2766 038.4700 01.01002807046340
0 GALAXY 16
1 29236U 06023A   19009.85120703 -.00000122 +00000-0 +00000-0 0  9994
2 29236 000.0228 061.2618 0002519 227.3100 027.9493 01.00269483045996
0 GALAXY 16
1 29236U 06023A   19010.57875736 -.00000121  00000-0  00000+0 0  9996
2 29236   0.0190  64.2498 0002478 223.1576 291.7351  1.00271817 46043
0 BLOCK DM-SL R/B
1 29237U 06023B   19009.86129751 -.00000133 +00000-0 +00000-0 0  9990
2 29237 000.9175 037.3259 6629566 054.2012 336.9986 02.15888609099021
0 BLOCK DM-SL R/B
1 29237U 06023B   19009.50066503 -.00000131 +00000-0 +00000-0 0  9994
2 29237 000.9169 037.3715 6629575 054.0623 056.7180 02.15888600099021
0 GENESIS 1
1 29252U 06029A   19009.56171306 +.00000091 +00000-0 +14899-4 0  9990
2 29252 064.5009 218.1322 0052958 266.9199 092.5864 15.17539458688437
0 GENESIS 1
1 29252U 06029A   19010.08890965  .00000080  00000-0  14359-4 0  9997
2 29252  64.5008 216.4081 0052985 266.8237  92.6822 15.17539723688598
0 BREEZE-M R/B
1 29254U 06032B   19009.25188153 +.00000086 +00000-0 +00000-0 0  9999
2 29254 012.1494 176.6567 6073574 146.4868 275.2147 02.06438868093221
0 SL-24 DEB
1 29256U 06029C   19009.89472792 -.00000106 +00000-0 +18478-5 0  9999
2 29256 064.5774 189.3888 0802880 166.1323 196.3262 13.33779423608399
0 COSMOS 2422
1 29260U 06030A   19010.37786959  .00000138  00000-0  00000+0 0  9994
2 29260  63.8380 130.0431 7401847 242.0858  26.2378  2.00913995 91399
0 COSMOS 2422
1 29260U 06030A   19009.83182360  .00000141  00000-0  00000+0 0  9993
2 29260  63.8383 130.1336 7401831 242.0809 351.3067  2.00915194 91385
0 SL-6 R/B(2)
1 29261U 06030B   19009.65444272 +.00000969 +00000-0 -12467+0 0  9996
2 29261 064.4510 162.3512 6568056 256.1552 022.2658 02.05483075093465
0 SL-6 R/B(2)
1 29261U 06030B   19010.62670812  .00000893  00000-0 -15059+0 0  9992
2 29261  64.4510 162.2577 6568534 256.1439  21.5025  2.05484763 93522
0 SL-6 R/B(2)
1 29261U 06030B   19009.34771625 +.00000978 +00000-0 -11731+0 0  9990
2 29261 064.4510 162.3806 6567902 256.1589 155.3650 02.05482653093461
0 TRANSIT 15 DEB
1 29265U 67034K   19010.12629248  .00004487  00000-0  20383-2 0  9990
2 29265  90.2042 318.7222 0044330 264.5366  95.0767 14.21195440746231
0 KOMPSAT 2
1 29268U 06031A   19010.07157892  .00000111  00000-0  31100-4 0  9999
2 29268  98.0480 266.4808 0018304  12.7504 347.4169 14.62402673664574
0 KOMPSAT 2
1 29268U 06031A   19010.75579192  .00000154  00000-0  39502-4 0  9996
2 29268  98.0477 267.1477 0018237  10.5673 349.5925 14.62403083664678
0 KOMPSAT 2
1 29268U 06031A   19009.86631498 +.00000104 +00000-0 +29742-4 0  9994
2 29268 098.0480 266.2805 0018332 013.3403 346.8282 14.62402483664540
0 KOMPSAT 2
1 29268U 06031A   19010.41368530  .00000091  00000-0  27192-4 0  9993
2 29268  98.0479 266.8141 0018289  11.7030 348.4577 14.62402521664623
0 KOMPSAT 2
1 29268U 06031A   19009.52420871 +.00000081 +00000-0 +25111-4 0  9998
2 29268 098.0482 265.9466 0018380 014.4110 345.7620 14.62402211664498
0 SL-19 R/B
1 29269U 06031B   19009.44126532 -.00000299 +00000-0 -17747-4 0  9996
2 29269 098.2920 176.3112 0126724 122.2050 239.1530 14.94356083677641
0 SL-19 R/B
1 29269U 06031B   19010.04390433 -.00000284  00000-0 -16539-4 0  9999
2 29269  98.2920 176.9477 0126754 120.2483 241.1354 14.94355878677819
0 SL-19 R/B
1 29269U 06031B   19009.90998457 -.00000290 +00000-0 -17023-4 0  9998
2 29269 098.2920 176.8062 0126744 120.6835 240.6946 14.94355921677711
0 EUTE HOT BIRD 13B (HB 8)
1 29270U 06032A   19009.58650530 +.00000091 +00000-0 +00000-0 0  9992
2 29270 000.0686 037.5850 0004939 267.2249 028.1282 01.00272001020094
0 EUTE HOT BIRD 13B (HB 8)
1 29270U 06032A   19010.85367059  .00000093  00000-0  00000+0 0  9996
2 29270   0.0701  39.7105 0005011 265.7146 124.9428  1.00272423 45643
0 BREEZE-M DEB (TANK)
1 29271U 06032C   19009.45568536 +.00000876 +00000-0 +10838-3 0  9997
2 29271 049.5027 233.3572 5333349 284.1353 024.4130 05.09679319225238
0 BREEZE-M DEB (TANK)
1 29271U 06032C   19009.84802276  .00000828  00000-0  10350-3 0  9998
2 29271  49.5027 233.0607 5333257 284.3881  24.2927  5.09679920225230
0 JCSAT 10
1 29272U 06033A   19009.62668663 -.00000341 +00000-0 +00000-0 0  9995
2 29272 000.0439 259.1585 0001951 041.8170 161.4945 01.00271581020515
0 JCSAT 10
1 29272U 06033A   19010.77297448 -.00000339  00000-0  00000+0 0  9998
2 29272   0.0424 254.0865 0002012  48.6925 213.4817  1.00270953 45544
0 SYRACUSE 3B
1 29273U 06033B   19009.39632796 -.00000040 +00000-0 +00000-0 0  9994
2 29273 000.0131 073.7575 0003599 220.7022 311.6383 01.00271750045473
0 SYRACUSE 3B
1 29273U 06033B   19010.15702772 -.00000039  00000-0  00000+0 0  9999
2 29273   0.0148  78.1776 0003636 216.8947 225.6272  1.00271815 45526
0 ARIANE 5 DEB (SYLDA)
1 29274U 06033C   19010.29372263  .00004859  00000-0  17846-2 0  9995
2 29274   5.9857  21.8217 6170449 329.7950   5.7565  3.76223325135658
0 ARIANE 5 DEB (SYLDA)
1 29274U 06033C   19009.76223928 +.00004863 +00000-0 +17921-2 0  9997
2 29274 005.9861 022.2241 6170424 328.9938 005.9207 03.76218187135638
0 ARIANE 5 DEB (SYLDA)
1 29274U 06033C   19009.23075055 +.00004982 +00000-0 +18395-2 0  9993
2 29274 005.9866 022.6252 6170345 328.1953 006.0858 03.76212257135614
0 ARIANE 5 R/B
1 29275U 06033D   19009.33662095 +.00000663 +00000-0 +26482-3 0  9990
2 29275 006.2768 305.5439 7114971 123.5879 324.8213 02.48279250108023
